$$SOE
2460154.500000000, A.D. 2023-Jul-29 00:00:00.0000, -2.128097459016942E+08, -2.760030688212779E+08, -5.979258261488020E+06,
2460161.500000000, A.D. 2023-Aug-05 00:00:00.0000, -2.023196016005974E+08, -2.809893375381263E+08, -7.088626579992697E+06,
2460168.500000000, A.D. 2023-Aug-12 00:00:00.0000, -1.915931061971200E+08, -2.856472140361109E+08, -8.189704571632296E+06,
2460175.500000000, A.D. 2023-Aug-19 00:00:00.0000, -1.806383333208767E+08, -2.899645981402723E+08, -9.281014265273988E+06,
2460182.500000000, A.D. 2023-Aug-26 00:00:00.0000, -1.694639797570422E+08, -2.939293393889438E+08, -1.036103033305074E+07,
2460189.500000000, A.D. 2023-Sep-02 00:00:00.0000, -1.580793968904752E+08, -2.975292616303306E+08, -1.142817975307016E+07,
2460196.500000000, A.D. 2023-Sep-09 00:00:00.0000, -1.464946225175879E+08, -3.007521911426351E+08, -1.248084171461472E+07,
2460203.500000000, A.D. 2023-Sep-16 00:00:00.0000, -1.347204126285633E+08, -3.035859886093283E+08, -1.351734782256781E+07,
2460210.500000000, A.D. 2023-Sep-23 00:00:00.0000, -1.227682724696935E+08, -3.060185849386662E+08, -1.453598265567026E+07,
2460217.500000000, A.D. 2023-Sep-30 00:00:00.0000, -1.106504869023901E+08, -3.080380200101089E+08, -1.553498459322183E+07,
2460224.500000000, A.D. 2023-Oct-07 00:00:00.0000, -9.838015203486782E+07, -3.096324851546844E+08, -1.651254678488608E+07,
2460231.500000000, A.D. 2023-Oct-14 00:00:00.0000, -8.597120664931087E+07, -3.107903729333997E+08, -1.746681867910683E+07,
2460238.500000000, A.D. 2023-Oct-21 00:00:00.0000, -7.343845969793341E+07, -3.115003328435820E+08, -1.839590832751112E+07,
2460245.500000000, A.D. 2023-Oct-28 00:00:00.0000, -6.079761473074185E+07, -3.117513308938248E+08, -1.929788520410080E+07,
2460252.500000000, A.D. 2023-Nov-04 00:00:00.0000, -4.806529187549469E+07, -3.115327139736363E+08, -2.017078354297133E+07,
2460259.500000000, A.D. 2023-Nov-11 00:00:00.0000, -3.525904649377447E+07, -3.108342797166660E+08, -2.101260631581670E+07,
2460266.500000000, A.D. 2023-Nov-18 00:00:00.0000, -2.239738352677125E+07, -3.096463519494433E+08, -2.182132992995849E+07,
2460273.500000000, A.D. 2023-Nov-25 00:00:00.0000, -9.499766623753229E+06, -3.079598616443008E+08, -2.259490970535566E+07,
2460280.500000000, A.D. 2023-Dec-02 00:00:00.0000, 3.413378871152691E+06, -3.057664332295086E+08, -2.333128618465607E+07,
2460287.500000000, A.D. 2023-Dec-09 00:00:00.0000, 1.632067009818897E+07, -3.030584760420275E+08, -2.402839233363229E+07,
2460294.500000000, A.D. 2023-Dec-16 00:00:00.0000, 2.919977929780683E+07, -2.998292805003249E+08, -2.468416169496158E+07,
2460301.500000000, A.D. 2023-Dec-23 00:00:00.0000, 4.202745621641074E+07, -2.960731177432922E+08, -2.529653749849327E+07,
2460308.500000000, A.D. 2023-Dec-30 00:00:00.0000, 5.477955996820579E+07, -2.917853409458770E+08, -2.586348253377166E+07,
2460315.500000000, A.D. 2024-Jan-06 00:00:00.0000, 6.743109956344418E+07, -2.869624897425495E+08, -2.638298981376943E+07,
2460322.500000000, A.D. 2024-Jan-13 00:00:00.0000, 7.995628720583019E+07, -2.816023984391987E+08, -2.685309444870734E+07,
2460329.500000000, A.D. 2024-Jan-20 00:00:00.0000, 9.232860642227420E+07, -2.757043036042007E+08, -2.727188654900834E+07,
2460336.500000000, A.D. 2024-Jan-27 00:00:00.0000, 1.045208937032568E+08, -2.692689488580804E+08, -2.763752485219699E+07,
2460343.500000000, A.D. 2024-Feb-03 00:00:00.0000, 1.165054337577859E+08, -2.622986860819126E+08, -2.794825101886991E+07,
2460350.500000000, A.D. 2024-Feb-10 00:00:00.0000, 1.282540689734162E+08, -2.547975714242164E+08, -2.820240452478442E+07,
2460357.500000000, A.D. 2024-Feb-17 00:00:00.0000, 1.397383232670571E+08, -2.467714540309349E+08, -2.839843800864492E+07,
2460364.500000000, A.D. 2024-Feb-24 00:00:00.0000, 1.509295400973550E+08, -2.382280552955915E+08, -2.853493289444523E+07,
2460371.500000000, A.D. 2024-Mar-02 00:00:00.0000, 1.617990340508355E+08, -2.291770363988180E+08, -2.861061508053191E+07,
2460378.500000000, A.D. 2024-Mar-09 00:00:00.0000, 1.723182551421626E+08, -2.196300519237447E+08, -2.862437047259134E+07,
2460385.500000000, A.D. 2024-Mar-16 00:00:00.0000, 1.824589648176349E+08, -2.096007871383547E+08, -2.857526011569117E+07,
2460392.500000000, A.D. 2024-Mar-23 00:00:00.0000, 1.921934217214883E+08, -1.991049757607563E+08, -2.846253453881228E+07,
2460399.500000000, A.D. 2024-Mar-30 00:00:00.0000, 2.014945727211134E+08, -1.881603963591802E+08, -2.828564680599178E+07,
2460406.500000000, A.D. 2024-Apr-06 00:00:00.0000, 2.103362468022398E+08, -1.767868491585350E+08, -2.804426426524077E+07,
2460413.500000000, A.D. 2024-Apr-13 00:00:00.0000, 2.186933524247172E+08, -1.650061112091783E+08, -2.773827895513020E+07,
2460420.500000000, A.D. 2024-Apr-20 00:00:00.0000, 2.265420741693344E+08, -1.528418665266932E+08, -2.736781608711663E+07,
2460427.500000000, A.D. 2024-Apr-27 00:00:00.0000, 2.338600637410083E+08, -1.403196116021239E+08, -2.693324026172762E+07,
2460434.500000000, A.D. 2024-May-04 00:00:00.0000, 2.406266218871525E+08, -1.274665374024432E+08, -2.643515926918012E+07,
2460441.500000000, A.D. 2024-May-11 00:00:00.0000, 2.468228679492027E+08, -1.143113889731002E+08, -2.587442533349698E+07,
2460448.500000000, A.D. 2024-May-18 00:00:00.0000, 2.524318937480530E+08, -1.008843042289930E+08, -2.525213368952853E+07,
2460455.500000000, A.D. 2024-May-25 00:00:00.0000, 2.574388987120663E+08, -8.721663412940642E+07, -2.456961844245711E+07,
2460462.500000000, A.D. 2024-Jun-01 00:00:00.0000, 2.618313035699964E+08, -7.334074701729326E+07, -2.382844573431404E+07,
2460469.500000000, A.D. 2024-Jun-08 00:00:00.0000, 2.655988405912223E+08, -5.928982032415445E+07, -2.303040432446112E+07,
2460476.500000000, A.D. 2024-Jun-15 00:00:00.0000, 2.687336190719644E+08, -4.509762261949587E+07, -2.217749372426374E+07,
2460483.500000000, A.D. 2024-Jun-22 00:00:00.0000, 2.712301640089950E+08, -3.079828859295809E+07, -2.127190990846296E+07,
2460490.500000000, A.D. 2024-Jun-29 00:00:00.0000, 2.730854254521900E+08, -1.642609268242079E+07, -2.031602882406631E+07,
2460497.500000000, A.D. 2024-Jul-06 00:00:00.0000, 2.742987614364293E+08, -2.015227689357921E+06, -1.931238845145477E+07,
2460504.500000000, A.D. 2024-Jul-13 00:00:00.0000, 2.748718973356925E+08, 1.240041073288249E+07, -1.826366970828335E+07,
2460511.500000000, A.D. 2024-Jul-20 00:00:00.0000, 2.748088611496599E+08, 2.678743142156374E+07, -1.717267628459068E+07,
2460518.500000000, A.D. 2024-Jul-27 00:00:00.0000, 2.741158960834128E+08, 4.111314283630892E+07, -1.604231380076232E+07,
2460525.500000000, A.D. 2024-Aug-03 00:00:00.0000, 2.728013531346011E+08, 5.534573296927412E+07, -1.487556871355180E+07,
2460532.500000000, A.D. 2024-Aug-10 00:00:00.0000, 2.708755666173809E+08, 6.945443189715067E+07, -1.367548733985460E+07,
2460539.500000000, A.D. 2024-Aug-17 00:00:00.0000, 2.683507156478070E+08, 8.340965540027288E+07, -1.244515532950567E+07,
2460546.500000000, A.D. 2024-Aug-24 00:00:00.0000, 2.652406747017465E+08, 9.718312857372457E+07, -1.118767788658844E+07,
2460553.500000000, A.D. 2024-Aug-31 00:00:00.0000, 2.615608564488543E+08, 1.107479888449946E+08, -9.906161010402046E+06,
2460560.500000000, A.D. 2024-Sep-07 00:00:00.0000, 2.573280502282501E+08, 1.240788684917454E+08, -8.603693991668887E+06,
2460567.500000000, A.D. 2024-Sep-14 00:00:00.0000, 2.525602590719411E+08, 1.371519580606746E+08, -7.283333257455766E+06,
2460574.500000000, A.D. 2024-Sep-21 00:00:00.0000, 2.472765358259715E+08, 1.499450519029151E+08, -5.948087464820817E+06,
2460581.500000000, A.D. 2024-Sep-28 00:00:00.0000, 2.414968202105155E+08, 1.624375737321534E+08, -4.600904139015272E+06,
2460588.500000000, A.D. 2024-Oct-05 00:00:00.0000, 2.352417825096150E+08, 1.746105835688787E+08, -3.244658231150337E+06,
2460595.500000000, A.D. 2024-Oct-12 00:00:00.0000, 2.285326752043611E+08, 1.864467705904640E+08, -1.882142319421962E+06,
2460602.500000000, A.D. 2024-Oct-19 00:00:00.0000, 2.213911921507589E+08, 1.979304332791119E+08, -5.160582836852074E+05,
2460609.500000000, A.D. 2024-Oct-26 00:00:00.0000, 2.138393363110158E+08, 2.090474477836888E+08, 8.509895421086252E+05,
2460616.500000000, A.D. 2024-Nov-02 00:00:00.0000, 2.058992970374406E+08, 2.197852260646482E+08, 2.216499782942176E+06,
2460623.500000000, A.D. 2024-Nov-09 00:00:00.0000, 1.975933374704049E+08, 2.301326655180766E+08, 3.578078088892013E+06,
2460630.500000000, A.D. 2024-Nov-16 00:00:00.0000, 1.889436922927314E+08, 2.400800916803126E+08, 4.933439957600430E+06,
2460637.500000000, A.D. 2024-Nov-23 00:00:00.0000, 1.799724758890682E+08, 2.496191954682109E+08, 6.280412416652501E+06,
2460644.500000000, A.D. 2024-Nov-30 00:00:00.0000, 1.707016009430065E+08, 2.587429663062418E+08, 7.616934658541888E+06,
2460651.500000000, A.D. 2024-Dec-07 00:00:00.0000, 1.611527075779725E+08, 2.674456228312681E+08, 8.941057740203664E+06,
2460658.500000000, A.D. 2024-Dec-14 00:00:00.0000, 1.513471019342217E+08, 2.757225435267990E+08, 1.025094362427929E+07,
2460665.500000000, A.D. 2024-Dec-21 00:00:00.0000, 1.413057013496667E+08, 2.835701970222751E+08, 1.154486378404912E+07,
2460672.500000000, A.D. 2024-Dec-28 00:00:00.0000, 1.310489875417817E+08, 2.909860699454232E+08, 1.282119705559804E+07,
2460679.500000000, A.D. 2025-Jan-04 00:00:00.0000, 1.205969697914225E+08, 2.979685954260768E+08, 1.407842679113780E+07,
2460686.500000000, A.D. 2025-Jan-11 00:00:00.0000, 1.099691556805520E+08, 3.045170844880641E+08, 1.531513770433417E+07,
2460693.500000000, A.D. 2025-Jan-18 00:00:00.0000, 9.918452782372674E+07, 3.106316598720785E+08, 1.653001249629033E+07,
2460700.500000000, A.D. 2025-Jan-25 00:00:00.0000, 8.826152619625314E+07, 3.163131921792601E+08, 1.772182827220157E+07,
2460707.500000000, A.D. 2025-Feb-01 00:00:00.0000, 7.721803562283407E+07, 3.215632385885810E+08, 1.888945279277766E+07,
2460714.500000000, A.D. 2025-Feb-08 00:00:00.0000, 6.607137788981586E+07, 3.263839843832402E+08, 2.003184061439899E+07,
2460721.500000000, A.D. 2025-Feb-15 00:00:00.0000, 5.483830795574805E+07, 3.307781874168526E+08, 2.114802916466980E+07,
$$EOE